{
    "businessAddress": [
        {
            "ID" : 2,
            "street" : "Im Stemker 4",
            "zip" : 99958,
            "city" : "Tonna",
            "type" : "business"
        },
        {
            "ID" : 3,
            "street" : "Heidestr. 41",
            "zip" : 58640,
            "city" : "Iserlohn",
            "type" : "business"
        },
        {
            "ID" : 4,
            "street" : "Trier Landstr. 64",
            "zip" : 54516,
            "city" : "Wittlich",
            "type" : "business"
        },
        {
            "ID" : 5,
            "street" : "Bärenschanzstr. 68",
            "zip" : 90429,
            "city" : "Nürnberg",
            "type" : "business"
        },
        {
            "ID" : 6,
            "street" : "Am Fliegerhorst 1",
            "zip" : 86456,
            "city" : "Gablingen",
            "type" : "business"
        },
        {
            "ID" : 7,
            "street" : "Luisenstr. 90",
            "zip" : 53721,
            "city" : "Siegburg",
            "type" : "business"
        },
        {
            "ID" : 9,
            "street" : "Wilhelm-Griesinger-Straße 23",
            "zip" : 51109,
            "city" : "Köln",
            "type" : "business"
        },
        {
            "ID" : 11,
            "street" : "Alt-Moabit 12a",
            "zip" : 10559,
            "city" : "Berlin",
            "type" : "business"
        },
        {
            "ID" : 14,
            "street" : "Am Schmalenhof 6",
            "zip" : 42369,
            "city" : "Wuppertal",
            "type" : "business"
        },
        {
            "ID" : 15,
            "street" : "Gartenstr. 2",
            "zip" : 47877,
            "city" : "Willich-Anrath",
            "type" : "business"
        },
        {
            "ID" : 16,
            "street" : "Oberhausener Str. 30",
            "zip" : 40472,
            "city" : "Ratingen",
            "type" : "business"
        },
        {
            "ID" : 17,
            "street" : "Masurenstr. 28",
            "zip" : 42899,
            "city" : "Remscheid",
            "type" : "business"
        },
        {
            "ID" : 20,
            "street" : "Marienschloß 1",
            "zip" : 35519,
            "city" : "Rockenberg",
            "type" : "business"
        },
        {
            "ID" : 24,
            "street" : "Senner Str. 250",
            "zip" : 33659,
            "city" : "Bielefeld",
            "type" : "business"
        },
        {
            "ID" : 25,
            "street" : "Werner-von Siemens-Str. 2",
            "zip" : 92224,
            "city" : "Amberg",
            "type" : "business"
        },
        {
            "ID" : 26,
            "street" : "Oststr. 2",
            "zip" : 3052,
            "city" : "Cottbus",
            "type" : "business"
        },
        {
            "ID" : 31,
            "street" : "Biggeweg 5-7",
            "zip" : 57439,
            "city" : "Attendorn",
            "type" : "business"
        },
        {
            "ID" : 37,
            "street" : "Riefstahlstr. 9",
            "zip" : 76133,
            "city" : "Karlsruhe",
            "type" : "business"
        },
        {
            "ID" : 40,
            "street" : "Umlostraße 100",
            "zip" : 33649,
            "city" : "Bielefeld",
            "type" : "business"
        },
        {
            "ID" : 41,
            "street" : "Rochusstr. 350",
            "zip" : 50827,
            "city" : "Köln",
            "type" : "business"
        },
        {
            "ID" : 43,
            "street" : "Herzogenriedstr. 111",
            "zip" : 68169,
            "city" : "Mannheim",
            "type" : "business"
        },
        {
            "ID" : 48,
            "street" : "Cloppenburger Str. 400",
            "zip" : 26133,
            "city" : "Oldenburg",
            "type" : "business"
        },
        {
            "ID" : 51,
            "street" : "Wittelbachstr. 10",
            "zip" : 67061,
            "city" : "Ludwigshafen",
            "type" : "business"
        },
        {
            "ID" : 52,
            "street" : "Rudolf-Diesel-Str. 15",
            "zip" : 67105,
            "city" : "Schifferstadt",
            "type" : "business"
        },
        {
            "ID" : 53,
            "street" : "Alfred-Str. 11",
            "zip" : 10365,
            "city" : "Berlin",
            "type" : "business"
        },
        {
            "ID" : 54,
            "street" : "Masurenstraße 27",
            "zip" : 42889,
            "city" : "Remschreid",
            "type" : "business"
        },
        {
            "ID" : 55,
            "street" : "Gaswerkstr. 23",
            "zip" : 87700,
            "city" : "Memmingen",
            "type" : "business"
        },
        {
            "ID" : 56,
            "street" : "Breidenbeck 15",
            "zip" : 29525,
            "city" : "Uelzen",
            "type" : "business"
        },
        {
            "ID" : 65,
            "street" : "Ziegenmarkt 10",
            "zip" : 38300,
            "city" : "Wolfenbüttel",
            "type" : "business"
        },
        {
            "ID" : 66,
            "street" : "Hinzistobel 34",
            "zip" : 88212,
            "city" : "Ravensburg",
            "type" : "business"
        },
        {
            "ID" : 70,
            "street" : "Vor den Löserbecken 4",
            "zip" : 64331,
            "city" : "Weiterstadt",
            "type" : "business"
        },
        {
            "ID" : 71,
            "street" : "Am Fuchsberg 3",
            "zip" : 28239,
            "city" : "Bremen",
            "type" : "business"
        },
        {
            "ID" : 73,
            "street" : "Herlikofer Str. 19",
            "zip" : 73527,
            "city" : "Schwäbisch-Gmünd",
            "type" : "business"
        },
        {
            "ID" : 75,
            "street" : "An der Propstei 10",
            "zip" : 49377,
            "city" : "Vechta",
            "type" : "business"
        },
        {
            "ID" : 77,
            "street" : "Gartenstr. 2",
            "zip" : 48777,
            "city" : "Willich",
            "type" : "business"
        },
        {
            "ID" : 79,
            "street" : "Umlostr.100",
            "zip" : 33649,
            "city" : "Bielefeld",
            "type" : "business"
        },
        {
            "ID" : 80,
            "street" : "Krusenrotter Weg 37",
            "zip" : 24113,
            "city" : "Kiel",
            "type" : "business"
        },
        {
            "ID" : 82,
            "street" : "Holzstr. 29",
            "zip" : 65197,
            "city" : "Wiesbaden",
            "type" : "business"
        },
        {
            "ID" : 83,
            "street" : "Ludwigshafener Str. 20",
            "zip" : 67227,
            "city" : "Frankenthal",
            "type" : "business"
        },
        {
            "ID" : 84,
            "street" : "Gröberssche Str. 1",
            "zip" : 6258,
            "city" : "Schkopau",
            "type" : "business"
        },
        {
            "ID" : 90,
            "street" : "Schulenburger Landstr. 145",
            "zip" : 30165,
            "city" : "Hannover",
            "type" : "business"
        },
        {
            "ID" : 91,
            "street" : "Schönbornstr. 32",
            "zip" : 76646,
            "city" : "Bruchsal",
            "type" : "business"
        },
        {
            "ID" : 95,
            "street" : "Mittelberg 1",
            "zip" : 71296,
            "city" : "Heimsheim",
            "type" : "business"
        },
        {
            "ID" : 96,
            "street" : "Wilhelm-Busch-Str. 38",
            "zip" : 6181,
            "city" : "Halle",
            "type" : "business"
        },
        {
            "ID" : 98,
            "street" : "Limburger Str. 122",
            "zip" : 65582,
            "city" : "Diez",
            "type" : "business"
        },
        {
            "ID" : 99,
            "street" : "Hinterbrack 25",
            "zip" : 21635,
            "city" : "Hahnöversand",
            "type" : "business"
        },
        {
            "ID" : 104,
            "street" : "Rochusstr. 350",
            "zip" : 50827,
            "city" : "Köln",
            "type" : "business"
        },
        {
            "ID" : 105,
            "street" : "Alt-Moabit 12a",
            "zip" : 10559,
            "city" : "Berlin",
            "type" : "business"
        },
        {
            "ID" : 106,
            "street" : "Gröberssche Str. 1",
            "zip" : 6258,
            "city" : "Schopkau",
            "type" : "business"
        },
        {
            "ID" : 107,
            "street" : "Eimterstr. 15",
            "zip" : 32049,
            "city" : "Herford",
            "type" : "business"
        },
        {
            "ID" : 112,
            "street" : "Krefelder Str. 251",
            "zip" : 52070,
            "city" : "Aachen",
            "type" : "business"
        },
        {
            "ID" : 113,
            "street" : "Kaiserstr. 5",
            "zip" : 49809,
            "city" : "Lingen",
            "type" : "business"
        },
        {
            "ID" : 114,
            "street" : "Belgische Str. 4",
            "zip" : 59457,
            "city" : "Werl",
            "type" : "business"
        },
        {
            "ID" : 116,
            "street" : "Paradeplatz 5",
            "zip" : 34613,
            "city" : "Schwalmstadt",
            "type" : "business"
        },
        {
            "ID" : 117,
            "street" : "Marktplatz 1",
            "zip" : 96157,
            "city" : "Ebrach",
            "type" : "business"
        },
        {
            "ID" : 118,
            "street" : "Hauptstr. 94",
            "zip" : 77815,
            "city" : "Bühl",
            "type" : "business"
        },
        {
            "ID" : 119,
            "street" : "Rehefelder Str. 60",
            "zip" : 1128,
            "city" : "Dresden",
            "type" : "business"
        },
        {
            "ID" : 120,
            "street" : "Madel 100",
            "zip" : 39288,
            "city" : "Burg",
            "type" : "business"
        },
        {
            "ID" : 121,
            "street" : "Schnedebruch 8",
            "zip" : 31319,
            "city" : "Sehnde",
            "type" : "business"
        },
        {
            "ID" : 129,
            "street" : "Breitscheidstr. 4",
            "zip" : 2625,
            "city" : "Bautzen",
            "type" : "business"
        },
        {
            "ID" : 131,
            "street" : "Kaiserstr. 5",
            "zip" : 49809,
            "city" : "Lingen",
            "type" : "business"
        },
        {
            "ID" : 132,
            "street" : "Parade 4",
            "zip" : 23552,
            "city" : "Lübeck",
            "type" : "business"
        },
        {
            "ID" : 133,
            "street" : "Am Großen Sieke 8 Rosdorf",
            "zip" : 37124,
            "city" : "Rosdorf",
            "type" : "business"
        },
        {
            "ID" : 135,
            "street" : "Friedrich-Olbricht-Damm 40",
            "zip" : 13627,
            "city" : "Berlin",
            "type" : "business"
        },
        {
            "ID" : 137,
            "street" : "Reinhartser Str. 11",
            "zip" : 87437,
            "city" : "Kempten",
            "type" : "business"
        },
        {
            "ID" : 138,
            "street" : "Aldenhofstr. 99-101",
            "zip" : 45883,
            "city" : "Gelsenkirchen",
            "type" : "business"
        },
        {
            "ID" : 139,
            "street" : "Trier Landstr. 64",
            "zip" : 54516,
            "city" : "Wittlich",
            "type" : "business"
        },
        {
            "ID" : 141,
            "street" : "Steinstr. 21",
            "zip" : 74072,
            "city" : "Heilbronn",
            "type" : "business"
        },
        {
            "ID" : 142,
            "street" : "Frauengraben 4",
            "zip" : 89073,
            "city" : "Ulm",
            "type" : "business"
        },
        {
            "ID" : 148,
            "street" : "Lerchesflurweg 37",
            "zip" : 66119,
            "city" : "Saabrücken",
            "type" : "business"
        },
        {
            "ID" : 152,
            "street" : "Hasenhägweg 135",
            "zip" : 63741,
            "city" : "Aschaffenburg",
            "type" : "business"
        },
        {
            "ID" : 155,
            "street" : "Im Stemker 4",
            "zip" : 99958,
            "city" : "Tonna",
            "type" : "business"
        },
        {
            "ID" : 156,
            "street" : "Kölner Str. 250",
            "zip" : 53897,
            "city" : "Euskirchen",
            "type" : "business"
        },
        {
            "ID" : 158,
            "street" : "Bismarckstr. 47",
            "zip" : 46535,
            "city" : "Dinslaken",
            "type" : "business"
        },
        {
            "ID" : 160,
            "street" : "Gartenstr. 26",
            "zip" : 48147,
            "city" : "Münster",
            "type" : "business"
        },
        {
            "ID" : 163,
            "street" : "Möhlendyk 50",
            "zip" : 47608,
            "city" : "Geldern",
            "type" : "business"
        },
        {
            "ID" : 165,
            "street" : "Asperger Str. 60",
            "zip" : 70439,
            "city" : "Stuttgart",
            "type" : "business"
        },
        {
            "ID" : 167,
            "street" : "Friedrich-Olbricht-Damm 17",
            "zip" : 13627,
            "city" : "Berlin",
            "type" : "business"
        },
        {
            "ID" : 169,
            "street" : "Anton-Saefkow-Allee 22",
            "zip" : 14772,
            "city" : "Brandenburg",
            "type" : "business"
        },
        {
            "ID" : 170,
            "street" : "Lehmkietenweg 1",
            "zip" : 15926,
            "city" : "Luckau OT Duben",
            "type" : "business"
        },
        {
            "ID" : 171,
            "street" : "Äußere Passauer Str. 90",
            "zip" : 94315,
            "city" : "Straubing",
            "type" : "business"
        },
        {
            "ID" : 172,
            "street" : "Schubartstr. 20",
            "zip" : 71679,
            "city" : "Asperg",
            "type" : "business"
        },
        {
            "ID" : 174,
            "street" : "Martinistr. 42",
            "zip" : 20251,
            "city" : "Hamburg",
            "type" : "business"
        },
        {
            "ID" : 176,
            "street" : "Fallerweg 9",
            "zip" : 54516,
            "city" : "Wittlich",
            "type" : "business"
        },
        {
            "ID" : 177,
            "street" : "Altstadt 25",
            "zip" : 64807,
            "city" : "Dieburg",
            "type" : "business"
        },
        {
            "ID" : 182,
            "street" : "Marienburgstr. 74",
            "zip" : 64297,
            "city" : "Darmstadt",
            "type" : "business"
        },
        {
            "ID" : 184,
            "street" : "Johann-Schwebel-Str. 33",
            "zip" : 66482,
            "city" : "Zweibrücken",
            "type" : "business"
        },
        {
            "ID" : 186,
            "street" : "Godehardsplatz 7",
            "zip" : 31134,
            "city" : "Hildesheim",
            "type" : "business"
        },
        {
            "ID" : 187,
            "street" : "Krohnestr. 11",
            "zip" : 47533,
            "city" : "Kleve",
            "type" : "business"
        },
        {
            "ID" : 190,
            "street" : "Vor den Löserbecken 4",
            "zip" : 64331,
            "city" : "Weiterstadt",
            "type" : "business"
        },
        {
            "ID" : 191,
            "street" : "Friedrich-Bergius-Ring 27",
            "zip" : 97076,
            "city" : "Würzburg",
            "type" : "business"
        },
        {
            "ID" : 195,
            "street" : "Tündernsche Str. 50",
            "zip" : 31789,
            "city" : "Hameln",
            "type" : "business"
        },
        {
            "ID" : 196,
            "street" : "Friedrich-Bergius-Ring 27",
            "zip" : 97076,
            "city" : "Würzburg",
            "type" : "business"
        },
        {
            "ID" : 197,
            "street" : "Krefelder Str. 251",
            "zip" : 52070,
            "city" : "Aachen",
            "type" : "business"
        },
        {
            "ID" : 202,
            "street" : "Otto-Lilienthal-Str. 1",
            "zip" : 77656,
            "city" : "Offenburg",
            "type" : "business"
        },
        {
            "ID" : 204,
            "street" : "Äußere Passauer Str. 90",
            "zip" : 94315,
            "city" : "Straubing",
            "type" : "business"
        },
        {
            "ID" : 207,
            "street" : "Gartenstr. 1",
            "zip" : 47877,
            "city" : "Willich",
            "type" : "business"
        },
        {
            "ID" : 209,
            "street" : "Biggeweg 5-7",
            "zip" : 57439,
            "city" : "Attendorn",
            "type" : "business"
        },
        {
            "ID" : 210,
            "street" : "Sudetenlandstr. 200",
            "zip" : 86633,
            "city" : "Neuburg",
            "type" : "business"
        },
        {
            "ID" : 212,
            "street" : "Krefelder Str. 251",
            "zip" : 52070,
            "city" : "Aachen",
            "type" : "business"
        },
        {
            "ID" : 215,
            "street" : "Willohstr. 13",
            "zip" : 49377,
            "city" : "Vechta",
            "type" : "business"
        },
        {
            "ID" : 219,
            "street" : "Hammerweg 30",
            "zip" : 1127,
            "city" : "Dresden",
            "type" : "business"
        },
        {
            "ID" : 220,
            "street" : "Krawehlstr. 59",
            "zip" : 45130,
            "city" : "Essen",
            "type" : "business"
        },
        {
            "ID" : 221,
            "street" : "Aachener Str. 47",
            "zip" : 53359,
            "city" : "Rheinbach",
            "type" : "business"
        },
        {
            "ID" : 222,
            "street" : "Am Schmalenhof 6",
            "zip" : 42639,
            "city" : "Wuppertal",
            "type" : "business"
        },
        {
            "ID" : 227,
            "street" : "Oberhausener Str. 30",
            "zip" : 40472,
            "city" : "Ratingen",
            "type" : "business"
        },
        {
            "ID" : 229,
            "street" : "Stelzenhofstr. 30",
            "zip" : 95032,
            "city" : "Hof",
            "type" : "business"
        },
        {
            "ID" : 230,
            "street" : "Zum Fuchsbau 1",
            "zip" : 18196,
            "city" : "Dummerstorf",
            "type" : "business"
        },
        {
            "ID" : 231,
            "street" : "Oberhausener Str. 30",
            "zip" : 40472,
            "city" : "Ratingen",
            "type" : "business"
        },
        {
            "ID" : 235,
            "street" : "Forstgarten 11",
            "zip" : 83410,
            "city" : "Laufen-Lebenau",
            "type" : "business"
        },
        {
            "ID" : 236,
            "street" : "Kühlungsvorner Str. 29a",
            "zip" : 18246,
            "city" : "Bützow",
            "type" : "business"
        },
        {
            "ID" : 244,
            "street" : "Kölner Str. 250",
            "zip" : 53897,
            "city" : "Euskirchen",
            "type" : "business"
        },
        {
            "ID" : 246,
            "street" : "Gutfleischstr. 2a",
            "zip" : 35390,
            "city" : "Gießen",
            "type" : "business"
        },
        {
            "ID" : 248,
            "street" : "Holstenglacis 3",
            "zip" : 20355,
            "city" : "Hamburg",
            "type" : "business"
        },
        {
            "ID" : 250,
            "street" : "Krümmede 3",
            "zip" : 44791,
            "city" : "Bochum",
            "type" : "business"
        },
        {
            "ID" : 256,
            "street" : "Kolpingstr. 1",
            "zip" : 74523,
            "city" : "Schwäbisch Hall",
            "type" : "business"
        },
        {
            "ID" : 257,
            "street" : "Staumühler Str. 284",
            "zip" : 33161,
            "city" : "Hövelhof",
            "type" : "business"
        },
        {
            "ID" : 258,
            "street" : "Bismarkstr. 5",
            "zip" : 59065,
            "city" : "Hamm",
            "type" : "business"
        },
        {
            "ID" : 260,
            "street" : "Obere Kreuzäckserstr. 4",
            "zip" : 60435,
            "city" : "Frankfurt - M.",
            "type" : "business"
        },
        {
            "ID" : 261,
            "street" : "Abteistraße 10",
            "zip" : 86687,
            "city" : "Kaisheim",
            "type" : "business"
        },
        {
            "ID" : 263,
            "street" : "Zinnstr. 33",
            "zip" : 33649,
            "city" : "Bielefeld",
            "type" : "business"
        },
        {
            "ID" : 265,
            "street" : "Münchener Str. 33",
            "zip" : 86551,
            "city" : "Aichach",
            "type" : "business"
        },
        {
            "ID" : 269,
            "street" : "Grünfeldstr. 1",
            "zip" : 49716,
            "city" : "Meppen",
            "type" : "business"
        },
        {
            "ID" : 270,
            "street" : "Rochusstr. 350",
            "zip" : 50827,
            "city" : "Köln",
            "type" : "business"
        },
        {
            "ID" : 274,
            "street" : "Krümmede 3",
            "zip" : 44791,
            "city" : "Bochum",
            "type" : "business"
        },
        {
            "ID" : 300,
            "street" : "Obere Sandstraße 39",
            "zip" : 95049,
            "city" : "Bamberg",
            "type" : "business"
        },
        {
            "ID" : 298,
            "street" : "Am Fliegerhorst 1",
            "zip" : 86456,
            "city" : "Gabling",
            "type" : "business"
        },
        {
            "ID" : 309,
            "street" : "Biggeweg 5-7",
            "zip" : 57439,
            "city" : "Attendorn",
            "type" : "business"
        }
    ]}
    